NORAD_CAT_ID,OBJECT_NAME,OBJECT_TYPE,EPOCH,MEAN_MOTION,ECCENTRICITY,INCLINATION,RA_OF_ASC_NODE,ARG_OF_PERICENTER,MEAN_ANOMALY,BSTAR,MEAN_MOTION_DOT,MEAN_MOTION_DDOT,TLE_LINE0,TLE_LINE1,TLE_LINE2,SEMIMAJOR_AXIS,PERIOD,APOGEE,PERIGEE,DECAYED
55764.0,STARLINK-5499,PAYLOAD,2024-04-22 05:20:22,14.9832837,0.0003367,69.9988,155.42,272.9101,87.1673,5.6548e-06,-2.6e-07,0.0,0 STARLINK-5499,1 55764U 23028Z   24113.22248323 -.00000026  00000-0  56548-5 0  9991,2 55764  69.9988 155.4200 0003367 272.9101  87.1673 14.98328370 63709,6950.198,96.107,574.403,569.723,0.0
55764.0,STARLINK-5499,PAYLOAD,2024-04-22 10:08:46,14.98330728,0.0002539,70.0009,154.9168,255.8401,104.2476,4.8785e-05,4.89e-06,0.0,0 STARLINK-5499,1 55764U 23028Z   24113.42276156  .00000489  00000-0  48785-4 0  9993,2 55764  70.0009 154.9168 0002539 255.8401 104.2476 14.98330728 63731,6950.191,96.107,573.82,570.291,0.0
55764.0,STARLINK-5499,PAYLOAD,2024-04-22 11:44:54,14.98330642,0.0002547,70.0009,154.7483,259.2192,100.868,6.2328e-05,6.51e-06,0.0,0 STARLINK-5499,1 55764U 23028Z   24113.48952123  .00000651  00000-0  62328-4 0  9994,2 55764  70.0009 154.7483 0002547 259.2192 100.8680 14.98330642 63748,6950.191,96.107,573.826,570.286,0.0
55764.0,STARLINK-5499,PAYLOAD,2024-04-23 03:46:14,14.98325598,0.0003031,69.9997,153.0646,259.5778,100.504,0.00038423,4.494e-05,0.0,0 STARLINK-5499,1 55764U 23028Z   24114.15711696  .00004494  00000-0  38423-3 0  9994,2 55764  69.9997 153.0646 0003031 259.5778 100.5040 14.98325598 63848,6950.207,96.107,574.178,569.965,0.0
55764.0,STARLINK-5499,PAYLOAD,2024-04-23 11:46:55,14.98329712,0.0002949,70.0,152.2237,257.9851,102.0978,0.0004132,4.841e-05,0.0,0 STARLINK-5499,1 55764U 23028Z   24114.49091606  .00004841  00000-0  41320-3 0  9999,2 55764  70.0000 152.2237 0002949 257.9851 102.0978 14.98329712 63898,6950.194,96.107,574.108,570.009,0.0
55764.0,STARLINK-5499,PAYLOAD,2024-04-24 03:48:15,14.98339542,0.0002883,70.0002,150.5411,259.6564,100.427,0.00015132,1.713e-05,0.0,0 STARLINK-5499,1 55764U 23028Z   24115.15851316  .00001713  00000-0  15132-3 0  9992,2 55764  70.0002 150.5411 0002883 259.6564 100.4270 14.98339542 63992,6950.163,96.106,574.032,570.025,0.0
55764.0,STARLINK-5499,PAYLOAD,2024-04-24 11:48:55,14.98338789,0.000283,70.0,149.6985,264.6234,95.4602,0.00011631,1.295e-05,0.0,0 STARLINK-5499,1 55764U 23028Z   24115.49231358  .00001295  00000-0  11631-3 0  9992,2 55764  70.0000 149.6985 0002830 264.6234  95.4602 14.98338789 64048,6950.166,96.106,573.998,570.064,0.0
55764.0,STARLINK-5499,PAYLOAD,2024-04-25 03:50:16,14.98336354,0.0002945,70.0003,148.0174,260.3255,99.7571,3.3791e-06,-5.3e-07,0.0,0 STARLINK-5499,1 55764U 23028Z   24116.15991318 -.00000053  00000-0  33791-5 0  9990,2 55764  70.0003 148.0174 0002945 260.3255  99.7571 14.98336354 64146,6950.173,96.107,574.085,569.991,0.0
55764.0,STARLINK-5499,PAYLOAD,2024-04-25 11:50:56,14.98334572,0.0002793,69.9995,147.1741,269.2704,90.8135,-2.7333e-05,-4.19e-06,0.0,0 STARLINK-5499,1 55764U 23028Z   24116.49371503 -.00000419  00000-0 -27333-4 0  9996,2 55764  69.9995 147.1741 0002793 269.2704  90.8135 14.98334572 64194,6950.179,96.107,573.985,570.103,0.0
55764.0,STARLINK-5499,PAYLOAD,2024-04-26 03:52:17,14.98335651,0.0003006,69.9997,145.4913,267.7637,92.3178,2.5877e-05,2.16e-06,0.0,0 STARLINK-5499,1 55764U 23028Z   24117.16130977  .00000216  00000-0  25877-4 0  9993,2 55764  69.9997 145.4913 0003006 267.7637  92.3178 14.98335651 64298,6950.175,96.107,574.13,569.951,0.0
55764.0,STARLINK-5499,PAYLOAD,2024-04-26 11:52:57,14.98339636,0.0003025,69.9993,144.6485,265.639,94.4423,6.7433e-05,7.12e-06,0.0,0 STARLINK-5499,1 55764U 23028Z   24117.49510528  .00000712  00000-0  67433-4 0  9998,2 55764  69.9993 144.6485 0003025 265.6390  94.4423 14.98339636 64342,6950.163,96.106,574.131,569.926,0.0
55764.0,STARLINK-5499,PAYLOAD,2024-04-27 03:54:18,14.98328873,0.0002776,69.9993,142.9654,259.1961,100.8886,0.0001229,1.374e-05,0.0,0 STARLINK-5499,1 55764U 23028Z   24118.16270966  .00001374  00000-0  12290-3 0  9997,2 55764  69.9993 142.9654 0002776 259.1961 100.8886 14.98328873 64442,6950.196,96.107,573.991,570.132,0.0
55764.0,STARLINK-5499,PAYLOAD,2024-04-27 11:54:58,14.98328957,0.0002939,69.9994,142.1247,263.5831,96.4994,8.1188e-05,8.76e-06,0.0,0 STARLINK-5499,1 55764U 23028Z   24118.49651029  .00000876  00000-0  81188-4 0  9995,2 55764  69.9994 142.1247 0002939 263.5831  96.4994 14.98328957 64497,6950.196,96.107,574.104,570.018,0.0
55764.0,STARLINK-5499,PAYLOAD,2024-04-27 18:19:30,14.98327551,0.000296,69.9994,141.4513,261.9657,98.1166,4.808e-06,-3.6e-07,0.0,0 STARLINK-5499,1 55764U 23028Z   24118.76355286 -.00000036  00000-0  48080-5 0  9995,2 55764  69.9994 141.4513 0002960 261.9657  98.1166 14.98327551 64531,6950.2,96.107,574.123,570.008,0.0
55764.0,STARLINK-5499,PAYLOAD,2024-04-28 03:56:19,14.98328121,0.0002999,69.9992,140.4412,267.4351,92.6465,-2.3625e-05,-3.75e-06,0.0,0 STARLINK-5499,1 55764U 23028Z   24119.16411289 -.00000375  00000-0 -23625-4 0  9990,2 55764  69.9992 140.4412 0002999 267.4351  92.6465 14.98328121 64591,6950.199,96.107,574.148,569.979,0.0
55764.0,STARLINK-5499,PAYLOAD,2024-04-28 11:56:59,14.98349,0.0002891,69.9991,139.5993,273.3524,86.7304,-0.00042909,-5.212e-05,0.0,0 STARLINK-5499,1 55764U 23028Z   24119.49790831 -.00005212  00000-0 -42909-3 0  9999,2 55764  69.9991 139.5993 0002891 273.3524  86.7304 14.98349000 64643,6950.134,96.106,574.008,569.99,0.0
55764.0,STARLINK-5499,PAYLOAD,2024-04-28 18:21:31,14.98328837,0.0003075,69.9989,138.9258,270.0212,90.0594,-5.8337e-05,-7.89e-06,0.0,0 STARLINK-5499,1 55764U 23028Z   24119.76495348 -.00000789  00000-0 -58337-4 0  9991,2 55764  69.9989 138.9258 0003075 270.0212  90.0594 14.98328837 64688,6950.196,96.107,574.199,569.924,0.0
55764.0,STARLINK-5499,PAYLOAD,2024-04-29 10:22:52,14.98328338,0.0003093,69.9987,137.2423,271.0996,88.9809,2.7324e-05,2.33e-06,0.0,0 STARLINK-5499,1 55764U 23028Z   24120.43255242  .00000233  00000-0  27324-4 0  9998,2 55764  69.9987 137.2423 0003093 271.0996  88.9809 14.98328338 64784,6950.198,96.107,574.213,569.913,0.0
55764.0,STARLINK-5499,PAYLOAD,2024-04-29 18:23:32,14.98336617,0.0003204,69.9986,136.4001,272.7376,87.3416,-6.8551e-05,-9.11e-06,0.0,0 STARLINK-5499,1 55764U 23028Z   24120.76634887 -.00000911  00000-0 -68551-4 0  9992,2 55764  69.9986 136.4001 0003204 272.7376  87.3416 14.98336617 64832,6950.172,96.107,574.264,569.811,0.0
55764.0,STARLINK-5499,PAYLOAD,2024-04-30 10:24:53,14.98330913,0.0003169,69.9984,134.7168,270.6592,89.4204,0.00010034,1.104e-05,0.0,0 STARLINK-5499,1 55764U 23028Z   24121.43394931  .00001104  00000-0  10034-3 0  9995,2 55764  69.9984 134.7168 0003169 270.6592  89.4204 14.98330913 64934,6950.19,96.107,574.258,569.853,0.0
55764.0,STARLINK-5499,PAYLOAD,2024-04-30 18:25:33,14.9833177,0.0003166,69.9985,133.8752,270.5367,89.543,8.9506e-05,9.75e-06,0.0,0 STARLINK-5499,1 55764U 23028Z   24121.76774892  .00000975  00000-0  89506-4 0  9995,2 55764  69.9985 133.8752 0003166 270.5367  89.5430 14.98331770 64989,6950.187,96.107,574.253,569.852,0.0
55764.0,STARLINK-5499,PAYLOAD,2024-05-01 05:38:29,14.98333332,0.0003158,69.9984,132.6971,270.6302,89.4496,6.4686e-05,6.79e-06,0.0,0 STARLINK-5499,1 55764U 23028Z   24122.23506794  .00000679  00000-0  64686-4 0  9995,2 55764  69.9984 132.6971 0003158 270.6302  89.4496 14.98333332 65055,6950.183,96.107,574.242,569.853,0.0
55764.0,STARLINK-5499,PAYLOAD,2024-05-01 18:27:34,14.98334288,0.0003159,69.9984,131.3504,270.6258,89.454,5.2212e-05,5.3e-06,0.0,0 STARLINK-5499,1 55764U 23028Z   24122.76914602  .00000530  00000-0  52212-4 0  9992,2 55764  69.9984 131.3504 0003159 270.6258  89.4540 14.98334288 65134,6950.18,96.107,574.24,569.849,0.0
55764.0,STARLINK-5499,PAYLOAD,2024-05-02 10:28:54,14.98334257,0.0003132,69.9984,129.6671,270.289,89.7911,2.0394e-05,1.5e-06,0.0,0 STARLINK-5499,1 55764U 23028Z   24123.43674512  .00000150  00000-0  20394-4 0  9994,2 55764  69.9984 129.6671 0003132 270.2890  89.7911 14.98334257 65230,6950.18,96.107,574.222,569.868,0.0
55764.0,STARLINK-5499,PAYLOAD,2024-05-03 04:06:23,14.98333141,0.0003143,69.9982,127.8155,270.1274,89.9525,5.3548e-06,-2.9e-07,0.0,0 STARLINK-5499,1 55764U 23028Z   24124.17110400 -.00000029  00000-0  53548-5 0  9991,2 55764  69.9982 127.8155 0003143 270.1274  89.9525 14.98333141 65348,6950.183,96.107,574.233,569.864,0.0
55764.0,STARLINK-5499,PAYLOAD,2024-05-03 10:30:55,14.98335027,0.0003141,69.9982,127.1423,269.7929,90.287,3.1557e-05,2.84e-06,0.0,0 STARLINK-5499,1 55764U 23028Z   24124.43814144  .00000284  00000-0  31557-4 0  9993,2 55764  69.9982 127.1423 0003141 269.7929  90.2870 14.98335027 65385,6950.177,96.107,574.225,569.859,0.0
55764.0,STARLINK-5499,PAYLOAD,2024-05-03 16:55:27,14.98330097,0.0003108,69.9983,126.4689,270.1695,89.9108,-1.3417e-05,-2.53e-06,0.0,0 STARLINK-5499,1 55764U 23028Z   24124.70518510 -.00000253  00000-0 -13417-4 0  9994,2 55764  69.9983 126.4689 0003108 270.1695  89.9108 14.98330097 65427,6950.193,96.107,574.218,569.897,0.0
55764.0,STARLINK-5499,PAYLOAD,2024-05-04 04:08:24,14.98326209,0.0003076,69.9984,125.2907,270.1027,89.9779,-5.1619e-05,-7.09e-06,0.0,0 STARLINK-5499,1 55764U 23028Z   24125.17250913 -.00000709  00000-0 -51619-4 0  9998,2 55764  69.9984 125.2907 0003076 270.1027  89.9779 14.98326209 65492,6950.205,96.107,574.207,569.932,0.0
55764.0,STARLINK-5499,PAYLOAD,2024-05-05 04:10:25,14.98328739,0.0003016,69.9986,122.7663,268.6695,91.4118,-1.3759e-05,-2.57e-06,0.0,0 STARLINK-5499,1 55764U 23028Z   24126.17390842 -.00000257  00000-0 -13759-4 0  9996,2 55764  69.9986 122.7663 0003016 268.6695  91.4118 14.98328739 65644,6950.197,96.107,574.158,569.966,0.0
55764.0,STARLINK-5499,PAYLOAD,2024-05-05 10:34:57,14.98328511,0.0003021,69.9987,122.0928,270.2089,89.8724,-1.2827e-05,-2.46e-06,0.0,0 STARLINK-5499,1 55764U 23028Z   24126.44094897 -.00000246  00000-0 -12827-4 0  9990,2 55764  69.9987 122.0928 0003021 270.2089  89.8724 14.98328511 65680,6950.197,96.107,574.162,569.963,0.0
